{
    "links": {
        "self": "http://www.neowsapp.com/rest/v1/neo/3943317?api_key=iIulBulltgU6a56xZRHN4H3l9WmuAYTsLGpBGhQ2"
    },
    "id": "3943317",
    "neo_reference_id": "3943317",
    "name": "(2019 YQ)",
    "designation": "2019 YQ",
    "nasa_jpl_url": "http://ssd.jpl.nasa.gov/sbdb.cgi?sstr=3943317",
    "absolute_magnitude_h": 27.8,
    "estimated_diameter": {
        "kilometers": {
            "estimated_diameter_min": 0.0073207399,
            "estimated_diameter_max": 0.016369672
        },
        "meters": {
            "estimated_diameter_min": 7.3207398935,
            "estimated_diameter_max": 16.3696720474
        },
        "miles": {
            "estimated_diameter_min": 0.0045488955,
            "estimated_diameter_max": 0.0101716395
        },
        "feet": {
            "estimated_diameter_min": 24.0181762721,
            "estimated_diameter_max": 53.70627484
        }
    },
    "is_potentially_hazardous_asteroid": false,
    "close_approach_data": [
        {
            "close_approach_date": "2019-12-28",
            "close_approach_date_full": "2019-Dec-28 17:46",
            "epoch_date_close_approach": 1577555160000,
            "relative_velocity": {
                "kilometers_per_second": "3.4198927212",
                "kilometers_per_hour": "12311.6137963107",
                "miles_per_hour": "7649.9580280465"
            },
            "miss_distance": {
                "astronomical": "0.0348390911",
                "lunar": "13.5524064379",
                "kilometers": "5211853.821295957",
                "miles": "3238495.7935079266"
            },
            "orbiting_body": "Earth"
        },
        {
            "close_approach_date": "2071-01-15",
            "close_approach_date_full": "2071-Jan-15 13:05",
            "epoch_date_close_approach": 3188552700000,
            "relative_velocity": {
                "kilometers_per_second": "4.5788302497",
                "kilometers_per_hour": "16483.7888989365",
                "miles_per_hour": "10242.3853855642"
            },
            "miss_distance": {
                "astronomical": "0.0638977494",
                "lunar": "24.8562245166",
                "kilometers": "9558967.208033778",
                "miles": "5939666.7970630164"
            },
            "orbiting_body": "Earth"
        }
    ],
    "orbital_data": {
        "orbit_id": "1",
        "orbit_determination_date": "2019-12-20 10:42:07",
        "first_observation_date": "2019-12-19",
        "last_observation_date": "2019-12-20",
        "data_arc_in_days": 1,
        "observations_used": 9,
        "orbit_uncertainty": "8",
        "minimum_orbit_intersection": ".0347988",
        "jupiter_tisserand_invariant": "4.578",
        "epoch_osculation": "2458837.5",
        "eccentricity": ".3017765270519604",
        "semi_major_axis": "1.457828869299986",
        "inclination": ".8534811830154202",
        "ascending_node_longitude": "257.1479347880471",
        "orbital_period": "642.9219396894777",
        "perihelion_distance": "1.01789033608655",
        "perihelion_argument": "199.5810878760476",
        "aphelion_distance": "1.897767402513422",
        "perihelion_time": "2458846.578049698861",
        "mean_anomaly": "354.9168045296939",
        "mean_motion": ".559943560448217",
        "equinox": "J2000",
        "orbit_class": {
            "orbit_class_type": "AMO",
            "orbit_class_description": "Near-Earth asteroid orbits similar to that of 1221 Amor",
            "orbit_class_range": "1.017 AU < q (perihelion) < 1.3 AU"
        }
    },
    "is_sentry_object": false
}